STARLINK-35991          
1 66861U 25281P   25350.91670139 -.01424388  00000+0 -85508-2 0  9995
2 66861  43.0008  96.5745 0001560 273.3990  22.5835 15.79531476  2077
STARLINK-35974          
1 66862U 25281Q   25350.91670139 -.01408912  00000+0 -84175-2 0  9990
2 66862  43.0007  96.5806 0001789 275.3010  18.2339 15.79602700  1971
STARLINK-36134          
1 66863U 25281R   25350.91670139 -.01436409  00000+0 -86873-2 0  9990
2 66863  43.0009  96.5675 0001457 277.7237  21.0754 15.79394730  2073
STARLINK-36070          
1 66864U 25281S   25350.91670139 -.01436436  00000+0 -87127-2 0  9994
2 66864  43.0007  96.5614 0001553 276.2541  24.8864 15.79330772  2107
STARLINK-36117          
1 66865U 25281T   25350.91670139 -.01508611  00000+0 -92681-2 0  9991
2 66865  43.0010  96.5494 0001651 276.9889  29.0409 15.79194146  2070
STARLINK-36126          
1 66866U 25281U   25350.91670139 -.01538919  00000+0 -95006-2 0  9990
2 66866  43.0009  96.5439 0001595 272.6831  35.5994 15.79149095  2103
STARLINK-36101          
1 66867U 25281V   25350.91670139 -.01575045  00000+0 -98108-2 0  9998
2 66867  43.0010  96.5374 0001595 273.5926  37.2734 15.79027981  1917
STARLINK-36108          
1 66868U 25281W   25350.91670139 -.01592051  00000+0 -10005-1 0  9994
2 66868  43.0009  96.5302 0001814 268.5033  45.0212 15.78866935  1911
STARLINK-36092          
1 66869U 25281X   25350.91670139 -.01603000  00000+0 -10129-1 0  9999
2 66869  43.0010  96.5246 0001749 276.1459  39.7162 15.78771178  2105
STARLINK-36114          
1 66870U 25281Y   25350.91670139 -.01620565  00000+0 -10336-1 0  9996
2 66870  43.0007  96.5179 0001691 270.3966  48.0805 15.78605172  1974
STARLINK-36095          
1 66871U 25281Z   25350.91670139 -.01660820  00000+0 -10477-1 0  9991
2 66871  43.0006  96.5108 0001719 273.5859  47.4949 15.78423041  2104
STARLINK-36082          
1 66872U 25281AA  25350.91670139 -.01667792  00000+0 -10562-1 0  9992
2 66872  43.0007  96.5052 0001587 276.5489  46.7110 15.78352716  1975
