CCSDS_OMM_VERS = 2.0
CREATION_DATE  = 
ORIGINATOR     = 

OBJECT_NAME    = STARLINK-35991
OBJECT_ID      = 2025-281P
CENTER_NAME    = EARTH
REF_FRAME      = TEME
TIME_SYSTEM    = UTC
MEAN_ELEMENT_THEORY = SGP/SGP4

EPOCH          = 2025-12-16T22:00:03.000096
MEAN_MOTION    = 15.79531476
ECCENTRICITY   = .00015607
INCLINATION    = 43.0008
RA_OF_ASC_NODE = 96.5745
ARG_OF_PERICENTER = 273.3990
MEAN_ANOMALY   = 22.5835

EPHEMERIS_TYPE = 0
CLASSIFICATION_TYPE = U
NORAD_CAT_ID   = 66861
ELEMENT_SET_NO = 999
REV_AT_EPOCH   = 207
BSTAR          = -.85507838E-2
MEAN_MOTION_DOT = -.1424388E-1
MEAN_MOTION_DDOT = 0

CCSDS_OMM_VERS = 2.0
CREATION_DATE  = 
ORIGINATOR     = 

OBJECT_NAME    = STARLINK-35974
OBJECT_ID      = 2025-281Q
CENTER_NAME    = EARTH
REF_FRAME      = TEME
TIME_SYSTEM    = UTC
MEAN_ELEMENT_THEORY = SGP/SGP4

EPOCH          = 2025-12-16T22:00:03.000096
MEAN_MOTION    = 15.79602700
ECCENTRICITY   = .00017895
INCLINATION    = 43.0007
RA_OF_ASC_NODE = 96.5806
ARG_OF_PERICENTER = 275.3010
MEAN_ANOMALY   = 18.2339

EPHEMERIS_TYPE = 0
CLASSIFICATION_TYPE = U
NORAD_CAT_ID   = 66862
ELEMENT_SET_NO = 999
REV_AT_EPOCH   = 197
BSTAR          = -.84174873E-2
MEAN_MOTION_DOT = -.1408912E-1
MEAN_MOTION_DDOT = 0

CCSDS_OMM_VERS = 2.0
CREATION_DATE  = 
ORIGINATOR     = 

OBJECT_NAME    = STARLINK-36134
OBJECT_ID      = 2025-281R
CENTER_NAME    = EARTH
REF_FRAME      = TEME
TIME_SYSTEM    = UTC
MEAN_ELEMENT_THEORY = SGP/SGP4

EPOCH          = 2025-12-16T22:00:03.000096
MEAN_MOTION    = 15.79394730
ECCENTRICITY   = .00014572
INCLINATION    = 43.0009
RA_OF_ASC_NODE = 96.5675
ARG_OF_PERICENTER = 277.7237
MEAN_ANOMALY   = 21.0754

EPHEMERIS_TYPE = 0
CLASSIFICATION_TYPE = U
NORAD_CAT_ID   = 66863
ELEMENT_SET_NO = 999
REV_AT_EPOCH   = 207
BSTAR          = -.86873047E-2
MEAN_MOTION_DOT = -.1436409E-1
MEAN_MOTION_DDOT = 0

CCSDS_OMM_VERS = 2.0
CREATION_DATE  = 
ORIGINATOR     = 

OBJECT_NAME    = STARLINK-36070
OBJECT_ID      = 2025-281S
CENTER_NAME    = EARTH
REF_FRAME      = TEME
TIME_SYSTEM    = UTC
MEAN_ELEMENT_THEORY = SGP/SGP4

EPOCH          = 2025-12-16T22:00:03.000096
MEAN_MOTION    = 15.79330772
ECCENTRICITY   = .0001553
INCLINATION    = 43.0007
RA_OF_ASC_NODE = 96.5614
ARG_OF_PERICENTER = 276.2541
MEAN_ANOMALY   = 24.8864

EPHEMERIS_TYPE = 0
CLASSIFICATION_TYPE = U
NORAD_CAT_ID   = 66864
ELEMENT_SET_NO = 999
REV_AT_EPOCH   = 210
BSTAR          = -.87126864E-2
MEAN_MOTION_DOT = -.1436436E-1
MEAN_MOTION_DDOT = 0

CCSDS_OMM_VERS = 2.0
CREATION_DATE  = 
ORIGINATOR     = 

OBJECT_NAME    = STARLINK-36117
OBJECT_ID      = 2025-281T
CENTER_NAME    = EARTH
REF_FRAME      = TEME
TIME_SYSTEM    = UTC
MEAN_ELEMENT_THEORY = SGP/SGP4

EPOCH          = 2025-12-16T22:00:03.000096
MEAN_MOTION    = 15.79194146
ECCENTRICITY   = .00016516
INCLINATION    = 43.0010
RA_OF_ASC_NODE = 96.5494
ARG_OF_PERICENTER = 276.9889
MEAN_ANOMALY   = 29.0409

EPHEMERIS_TYPE = 0
CLASSIFICATION_TYPE = U
NORAD_CAT_ID   = 66865
ELEMENT_SET_NO = 999
REV_AT_EPOCH   = 207
BSTAR          = -.92681289E-2
MEAN_MOTION_DOT = -.1508611E-1
MEAN_MOTION_DDOT = 0

CCSDS_OMM_VERS = 2.0
CREATION_DATE  = 
ORIGINATOR     = 

OBJECT_NAME    = STARLINK-36126
OBJECT_ID      = 2025-281U
CENTER_NAME    = EARTH
REF_FRAME      = TEME
TIME_SYSTEM    = UTC
MEAN_ELEMENT_THEORY = SGP/SGP4

EPOCH          = 2025-12-16T22:00:03.000096
MEAN_MOTION    = 15.79149095
ECCENTRICITY   = .0001595
INCLINATION    = 43.0009
RA_OF_ASC_NODE = 96.5439
ARG_OF_PERICENTER = 272.6831
MEAN_ANOMALY   = 35.5994

EPHEMERIS_TYPE = 0
CLASSIFICATION_TYPE = U
NORAD_CAT_ID   = 66866
ELEMENT_SET_NO = 999
REV_AT_EPOCH   = 210
BSTAR          = -.9500635E-2
MEAN_MOTION_DOT = -.1538919E-1
MEAN_MOTION_DDOT = 0

CCSDS_OMM_VERS = 2.0
CREATION_DATE  = 
ORIGINATOR     = 

OBJECT_NAME    = STARLINK-36101
OBJECT_ID      = 2025-281V
CENTER_NAME    = EARTH
REF_FRAME      = TEME
TIME_SYSTEM    = UTC
MEAN_ELEMENT_THEORY = SGP/SGP4

EPOCH          = 2025-12-16T22:00:03.000096
MEAN_MOTION    = 15.79027981
ECCENTRICITY   = .00015954
INCLINATION    = 43.0010
RA_OF_ASC_NODE = 96.5374
ARG_OF_PERICENTER = 273.5926
MEAN_ANOMALY   = 37.2734

EPHEMERIS_TYPE = 0
CLASSIFICATION_TYPE = U
NORAD_CAT_ID   = 66867
ELEMENT_SET_NO = 999
REV_AT_EPOCH   = 191
BSTAR          = -.98107617E-2
MEAN_MOTION_DOT = -.1575045E-1
MEAN_MOTION_DDOT = 0

CCSDS_OMM_VERS = 2.0
CREATION_DATE  = 
ORIGINATOR     = 

OBJECT_NAME    = STARLINK-36108
OBJECT_ID      = 2025-281W
CENTER_NAME    = EARTH
REF_FRAME      = TEME
TIME_SYSTEM    = UTC
MEAN_ELEMENT_THEORY = SGP/SGP4

EPOCH          = 2025-12-16T22:00:03.000096
MEAN_MOTION    = 15.78866935
ECCENTRICITY   = .00018143
INCLINATION    = 43.0009
RA_OF_ASC_NODE = 96.5302
ARG_OF_PERICENTER = 268.5033
MEAN_ANOMALY   = 45.0212

EPHEMERIS_TYPE = 0
CLASSIFICATION_TYPE = U
NORAD_CAT_ID   = 66868
ELEMENT_SET_NO = 999
REV_AT_EPOCH   = 191
BSTAR          = -.1000493E-1
MEAN_MOTION_DOT = -.1592051E-1
MEAN_MOTION_DDOT = 0

CCSDS_OMM_VERS = 2.0
CREATION_DATE  = 
ORIGINATOR     = 

OBJECT_NAME    = STARLINK-36092
OBJECT_ID      = 2025-281X
CENTER_NAME    = EARTH
REF_FRAME      = TEME
TIME_SYSTEM    = UTC
MEAN_ELEMENT_THEORY = SGP/SGP4

EPOCH          = 2025-12-16T22:00:03.000096
MEAN_MOTION    = 15.78771178
ECCENTRICITY   = .0001749
INCLINATION    = 43.0010
RA_OF_ASC_NODE = 96.5246
ARG_OF_PERICENTER = 276.1459
MEAN_ANOMALY   = 39.7162

EPHEMERIS_TYPE = 0
CLASSIFICATION_TYPE = U
NORAD_CAT_ID   = 66869
ELEMENT_SET_NO = 999
REV_AT_EPOCH   = 210
BSTAR          = -.10128894E-1
MEAN_MOTION_DOT = -.1603E-1
MEAN_MOTION_DDOT = 0

CCSDS_OMM_VERS = 2.0
CREATION_DATE  = 
ORIGINATOR     = 

OBJECT_NAME    = STARLINK-36114
OBJECT_ID      = 2025-281Y
CENTER_NAME    = EARTH
REF_FRAME      = TEME
TIME_SYSTEM    = UTC
MEAN_ELEMENT_THEORY = SGP/SGP4

EPOCH          = 2025-12-16T22:00:03.000096
MEAN_MOTION    = 15.78605172
ECCENTRICITY   = .00016913
INCLINATION    = 43.0007
RA_OF_ASC_NODE = 96.5179
ARG_OF_PERICENTER = 270.3966
MEAN_ANOMALY   = 48.0805

EPHEMERIS_TYPE = 0
CLASSIFICATION_TYPE = U
NORAD_CAT_ID   = 66870
ELEMENT_SET_NO = 999
REV_AT_EPOCH   = 197
BSTAR          = -.10335549E-1
MEAN_MOTION_DOT = -.1620565E-1
MEAN_MOTION_DDOT = 0

CCSDS_OMM_VERS = 2.0
CREATION_DATE  = 
ORIGINATOR     = 

OBJECT_NAME    = STARLINK-36095
OBJECT_ID      = 2025-281Z
CENTER_NAME    = EARTH
REF_FRAME      = TEME
TIME_SYSTEM    = UTC
MEAN_ELEMENT_THEORY = SGP/SGP4

EPOCH          = 2025-12-16T22:00:03.000096
MEAN_MOTION    = 15.78423041
ECCENTRICITY   = .00017196
INCLINATION    = 43.0006
RA_OF_ASC_NODE = 96.5108
ARG_OF_PERICENTER = 273.5859
MEAN_ANOMALY   = 47.4949

EPHEMERIS_TYPE = 0
CLASSIFICATION_TYPE = U
NORAD_CAT_ID   = 66871
ELEMENT_SET_NO = 999
REV_AT_EPOCH   = 210
BSTAR          = -.1047741E-1
MEAN_MOTION_DOT = -.166082E-1
MEAN_MOTION_DDOT = 0

CCSDS_OMM_VERS = 2.0
CREATION_DATE  = 
ORIGINATOR     = 

OBJECT_NAME    = STARLINK-36082
OBJECT_ID      = 2025-281AA
CENTER_NAME    = EARTH
REF_FRAME      = TEME
TIME_SYSTEM    = UTC
MEAN_ELEMENT_THEORY = SGP/SGP4

EPOCH          = 2025-12-16T22:00:03.000096
MEAN_MOTION    = 15.78352716
ECCENTRICITY   = .00015879
INCLINATION    = 43.0007
RA_OF_ASC_NODE = 96.5052
ARG_OF_PERICENTER = 276.5489
MEAN_ANOMALY   = 46.7110

EPHEMERIS_TYPE = 0
CLASSIFICATION_TYPE = U
NORAD_CAT_ID   = 66872
ELEMENT_SET_NO = 999
REV_AT_EPOCH   = 197
BSTAR          = -.10561523E-1
MEAN_MOTION_DOT = -.1667792E-1
MEAN_MOTION_DDOT = 0

